[{"OBJECT_NAME":"COSMOS 2566","OBJECT_ID":"2022-163C","EPOCH":"2026-03-09T21:48:06.708672","MEAN_MOTION":13.97695206,"ECCENTRICITY":0.0007804,"INCLINATION":67.1457,"RA_OF_ASC_NODE":343.8663,"ARG_OF_PERICENTER":202.0486,"MEAN_ANOMALY":158.0264,"EPHEMERIS_TYPE":0,"CLASSIFICATION_TYPE":"U","NORAD_CAT_ID":54383,"ELEMENT_SET_NO":999,"REV_AT_EPOCH":16669,"BSTAR":7.7007e-5,"MEAN_MOTION_DOT":3.3e-7,"MEAN_MOTION_DDOT":0},{"OBJECT_NAME":"COSMOS 1275 DEB","OBJECT_ID":"1981-053GE","EPOCH":"2026-03-09T10:50:12.141024","MEAN_MOTION":14.02761982,"ECCENTRICITY":0.00264274,"INCLINATION":82.9159,"RA_OF_ASC_NODE":65.8642,"ARG_OF_PERICENTER":285.85,"MEAN_ANOMALY":192.4396,"EPHEMERIS_TYPE":0,"CLASSIFICATION_TYPE":"U","NORAD_CAT_ID":13484,"ELEMENT_SET_NO":999,"REV_AT_EPOCH":21186,"BSTAR":0.00086222352,"MEAN_MOTION_DOT":1.352e-5,"MEAN_MOTION_DDOT":0}]
